[{"OBJECT_NAME":"STARLINK-5594","OBJECT_ID":"2023-028B","EPOCH":"2026-03-09T20:52:36.158880","MEAN_MOTION":14.98332681,"ECCENTRICITY":0.00024521,"INCLINATION":69.9991,"RA_OF_ASC_NODE":244.1407,"ARG_OF_PERICENTER":272.6317,"MEAN_ANOMALY":87.4561,"EPHEMERIS_TYPE":0,"CLASSIFICATION_TYPE":"U","NORAD_CAT_ID":55742,"ELEMENT_SET_NO":999,"REV_AT_EPOCH":16606,"BSTAR":-0.00010407127,"MEAN_MOTION_DOT":-1.335e-5,"MEAN_MOTION_DDOT":0},{"OBJECT_NAME":"SHIYAN-24C 02","OBJECT_ID":"2023-206B","EPOCH":"2026-03-09T21:24:07.715808","MEAN_MOTION":14.97980163,"ECCENTRICITY":0.0003465,"INCLINATION":97.3985,"RA_OF_ASC_NODE":41.8071,"ARG_OF_PERICENTER":80.6641,"MEAN_ANOMALY":279.4974,"EPHEMERIS_TYPE":0,"CLASSIFICATION_TYPE":"U","NORAD_CAT_ID":58651,"ELEMENT_SET_NO":999,"REV_AT_EPOCH":12044,"BSTAR":0.00023935,"MEAN_MOTION_DOT":2.77e-5,"MEAN_MOTION_DDOT":0}]
